{
"type": "FeatureCollection",
"name": "buffer_lokasi_optimal_RTH",
"crs": { "type": "name", "properties": { "name": "urn:ogc:def:crs:OGC:1.3:CRS84" } },
"features": [
{ "type": "Feature", "properties": { "ADMINISTRASI_1": "Jakarta Barat", "KECAMATAN_1": "Palmerah", "Kepadatan Penduduk": 20552432, "Kelas Kepadatan Penduduk": "TINGGI", "ID_PROV": "31", "PROVINSI": "DKI JAKARTA", "ID_KABKOT": "31.73", "KABKOT": "KOTA ADM. JAKARTA BARAT", "ID_KEC": "31.73.07", "KECAMATAN_2": "PAL MERAH", "ID_DESA": "31.73.07.1002", "DESA": "SLIPI", "KELAS_RISIKO": "SEDANG", "Administrasi": "Jakarta Barat", "Kecamatan": "Palmerah", "Tingkat Polusi": "Rendah", "ADMINISTRASI_2": "Jakarta Barat", "KECAMATAN": "Palmerah", "LUAS RTH": 3495289, "SKOR_TOTAL": 8, "KESESUAIAN": "SEDANG" }, "geometry": { "type": "Polygon", "coordinates": [ [ [ 106.793935719152813, -6.201188707118273 ], [ 106.793920398405135, -6.201157022190756 ], [ 106.793919948405119, -6.201155960190731 ], [ 106.793874937610198, -6.201046123243125 ], [ 106.793733006804445, -6.200687711253985 ], [ 106.793718815992591, -6.20065197247957 ], [ 106.793667399902233, -6.200516817773036 ], [ 106.793544785902213, -6.200179928773053 ], [ 106.79352493866422, -6.200125388786569 ], [ 106.79338811385459, -6.199749412275441 ], [ 106.793361474746462, -6.19967621271745 ], [ 106.793281255355765, -6.199437197211073 ], [ 106.79323445838493, -6.199285159798987 ], [ 106.793216243328999, -6.199225983109988 ], [ 106.793032419797029, -6.198628765893605 ], [ 106.79296906941012, -6.198404486181508 ], [ 106.792763003410144, -6.19760408818154 ], [ 106.792755504200883, -6.197574588284787 ], [ 106.792679270003006, -6.197270834123978 ], [ 106.792595901850305, -6.196869696183151 ], [ 106.792545655991844, -6.196463079348574 ], [ 106.792528869802197, -6.196053713839166 ], [ 106.792528869802197, -6.194736979674928 ], [ 106.792552946168826, -6.19424689397328 ], [ 106.79262494340017, -6.193761528064847 ], [ 106.792744168123534, -6.193285556288656 ], [ 106.792909472139641, -6.192823562513103 ], [ 106.793119263480449, -6.192379995990797 ], [ 106.793371521740681, -6.191959128509829 ], [ 106.793663817535375, -6.19156501325411 ], [ 106.793993335896261, -6.191201445768995 ], [ 106.79435690338137, -6.190871927408114 ], [ 106.794751018637101, -6.190579631613415 ], [ 106.795171886118069, -6.190327373353186 ], [ 106.795224456985267, -6.190302509184763 ], [ 106.795224456985267, -6.190244334369807 ], [ 106.795248533351895, -6.18975424866816 ], [ 106.79532053058324, -6.189268882759727 ], [ 106.795439755306603, -6.188792910983535 ], [ 106.79560505932271, -6.188330917207982 ], [ 106.795814850663518, -6.187887350685677 ], [ 106.796067108923751, -6.187466483204709 ], [ 106.796359404718444, -6.187072367948989 ], [ 106.79668892307933, -6.186708800463874 ], [ 106.79705249056444, -6.186379282102994 ], [ 106.797231217794945, -6.186246728954859 ], [ 106.797514031675178, -6.185922077452731 ], [ 106.797860651595471, -6.18559354736719 ], [ 106.798237034104332, -6.185299585476356 ], [ 106.798639745428233, -6.18504287362262 ], [ 106.799065111593308, -6.184825753812726 ], [ 106.799509251943448, -6.184650206851423 ], [ 106.79996811454383, -6.184517834270395 ], [ 106.800437513147159, -6.184429843717335 ], [ 106.800913165385182, -6.184387037938455 ], [ 106.800918116514538, -6.184387066651181 ], [ 106.800987570392451, -6.184375587262704 ], [ 106.80153248559175, -6.184345805308785 ], [ 106.802920044168346, -6.184345805308785 ], [ 106.803410129869988, -6.184369881675424 ], [ 106.80389549577842, -6.184441878906768 ], [ 106.804371467554617, -6.184561103630124 ], [ 106.804717102290397, -6.184684773716066 ], [ 106.805062737026162, -6.184561103630124 ], [ 106.805538708802359, -6.184441878906768 ], [ 106.806024074710791, -6.184369881675424 ], [ 106.806514160412434, -6.184345805308785 ], [ 106.806685977644335, -6.184345805308785 ], [ 106.807164630831693, -6.184368768928945 ], [ 106.807638887375049, -6.184437448858289 ], [ 106.808104391015561, -6.184551214240891 ], [ 106.808556865893721, -6.184709020090737 ], [ 106.808992155825038, -6.18490941689039 ], [ 106.809406262476443, -6.185150563905455 ], [ 106.809795382092801, -6.185430246092547 ], [ 106.81015594043609, -6.185745894445464 ], [ 106.810484625616368, -6.186094609592653 ], [ 106.810778418512982, -6.18647318842924 ], [ 106.811034620506533, -6.186878153538983 ], [ 106.811250878266932, -6.1873057851359 ], [ 106.811425205369744, -6.187752155232164 ], [ 106.81155600054241, -6.188213163718441 ], [ 106.811642062372684, -6.188684576025221 ], [ 106.811682600344071, -6.189162062019244 ], [ 106.811677242097161, -6.18964123577771 ], [ 106.811626036849844, -6.190117695874948 ], [ 106.811529454945244, -6.190587065811478 ], [ 106.811364576348595, -6.191230432565305 ], [ 106.811357575613272, -6.191274345950157 ], [ 106.811335018519557, -6.191381496580301 ], [ 106.811228897953342, -6.19179651326185 ], [ 106.81106867995338, -6.192327233261879 ], [ 106.810942918613705, -6.19269224326332 ], [ 106.810714037613707, -6.193281615263299 ], [ 106.810566748842504, -6.193622747336384 ], [ 106.810461120152269, -6.193844377515244 ], [ 106.810454506434723, -6.193858293821018 ], [ 106.810364283886315, -6.194079706515925 ], [ 106.810327879522319, -6.194405065598881 ], [ 106.810304905014945, -6.19458182455974 ], [ 106.810235230932435, -6.195052127729481 ], [ 106.810225004381053, -6.195118114798099 ], [ 106.810008010002377, -6.196459049611979 ], [ 106.809911544913547, -6.196917670491094 ], [ 106.809772563705266, -6.197365244895932 ], [ 106.809630945317281, -6.197755676675261 ], [ 106.809417069124194, -6.198257925025126 ], [ 106.808857402725451, -6.199395547760406 ], [ 106.808620967450693, -6.199822237560801 ], [ 106.808571322698569, -6.199902345062555 ], [ 106.808182206439355, -6.200445484036941 ], [ 106.808067530800159, -6.200584846154913 ], [ 106.807680484031593, -6.201003988071136 ], [ 106.807390821330159, -6.201253477425892 ], [ 106.807308322030309, -6.201391683298784 ], [ 106.807195244020335, -6.20156254704878 ], [ 106.8068286499648, -6.20204921360989 ], [ 106.806405583633051, -6.202487677316708 ], [ 106.806280433455072, -6.202602479929154 ], [ 106.80608560102776, -6.202772145859026 ], [ 106.806056800215728, -6.202795946496606 ], [ 106.805704372731313, -6.203061899696851 ], [ 106.805498379731247, -6.203203521696852 ], [ 106.805170893012345, -6.203410460045524 ], [ 106.80482836808352, -6.203591423313467 ], [ 106.804137185301997, -6.203923002742482 ], [ 106.804115963238587, -6.203935050723357 ], [ 106.80376366128678, -6.204116977892652 ], [ 106.803655634804684, -6.204167441575497 ], [ 106.803539292040156, -6.204222117329447 ], [ 106.803321365778942, -6.204508070159398 ], [ 106.802982511474312, -6.204871365191091 ], [ 106.802609277714552, -6.205199240289854 ], [ 106.802205349145737, -6.205488458600319 ], [ 106.801774713439869, -6.205736164895466 ], [ 106.801321621927741, -6.205939913764061 ], [ 106.800850547628798, -6.206097693752285 ], [ 106.80036614109251, -6.206207947221257 ], [ 106.799873184487168, -6.20626958572439 ], [ 106.799376544389233, -6.206282000752769 ], [ 106.798881123739378, -6.206245069742496 ], [ 106.798391813439665, -6.206159157284657 ], [ 106.797913444069408, -6.206025111526004 ], [ 106.797450738196645, -6.205844255795864 ], [ 106.797008263755913, -6.205618375541936 ], [ 106.796590388952595, -6.205349700703958 ], [ 106.796201239138995, -6.205040883699255 ], [ 106.795844656088008, -6.204694973237479 ], [ 106.79552416006625, -6.204315384223085 ], [ 106.795242915081189, -6.203905864042632 ], [ 106.795003697645441, -6.203470455569761 ], [ 106.794875893077275, -6.203207686786509 ], [ 106.794622905642697, -6.202686273862613 ], [ 106.794490744096521, -6.202415958682078 ], [ 106.794397796125835, -6.202225848787298 ], [ 106.794362273906614, -6.202151653285694 ], [ 106.794259229906601, -6.201931799285728 ], [ 106.794234617442342, -6.201878473503789 ], [ 106.794157342442318, -6.201708430503763 ], [ 106.794103942592599, -6.201586650772014 ], [ 106.793935719152813, -6.201188707118273 ] ] ] } },
{ "type": "Feature", "properties": { "ADMINISTRASI_1": "Jakarta Barat", "KECAMATAN_1": "Palmerah", "Kepadatan Penduduk": 20552432, "Kelas Kepadatan Penduduk": "TINGGI", "ID_PROV": "31", "PROVINSI": "DKI JAKARTA", "ID_KABKOT": "31.73", "KABKOT": "KOTA ADM. JAKARTA BARAT", "ID_KEC": "31.73.07", "KECAMATAN_2": "PAL MERAH", "ID_DESA": "31.73.07.1001", "DESA": "PALMERAH", "KELAS_RISIKO": "SEDANG", "Administrasi": "Jakarta Barat", "Kecamatan": "Palmerah", "Tingkat Polusi": "Rendah", "ADMINISTRASI_2": "Jakarta Barat", "KECAMATAN": "Palmerah", "LUAS RTH": 3495289, "SKOR_TOTAL": 8, "KESESUAIAN": "SEDANG" }, "geometry": { "type": "Polygon", "coordinates": [ [ [ 106.789124093967175, -6.205968592937726 ], [ 106.789030827156083, -6.205596250956271 ], [ 106.788958829924738, -6.205110885047838 ], [ 106.788934753558109, -6.20462079934619 ], [ 106.788934753558109, -6.201026683102095 ], [ 106.788958829924738, -6.200536597400447 ], [ 106.789030827156083, -6.200051231492014 ], [ 106.789150051879446, -6.199575259715822 ], [ 106.789315355895553, -6.199113265940269 ], [ 106.789525147236361, -6.198669699417964 ], [ 106.789777405496594, -6.198248831936996 ], [ 106.790069701291287, -6.197854716681277 ], [ 106.790399219652173, -6.197491149196162 ], [ 106.790762787137282, -6.197161630835281 ], [ 106.791156902393013, -6.196869335040581 ], [ 106.791577769873982, -6.196617076780353 ], [ 106.791889647265975, -6.196469569759539 ], [ 106.791940393773501, -6.196404102182596 ], [ 106.792289994312299, -6.196036896797818 ], [ 106.792674985039611, -6.195706983974153 ], [ 106.793091407321683, -6.195417756011593 ], [ 106.79353497933252, -6.195172186871572 ], [ 106.79400114008142, -6.194972801597471 ], [ 106.794485096310893, -6.194821650351074 ], [ 106.794981871783008, -6.194720287331962 ], [ 106.79548635844705, -6.194669754796585 ], [ 106.795635178453523, -6.194662440307358 ], [ 106.795965230939018, -6.194562734467058 ], [ 106.796508848778913, -6.194462265821471 ], [ 106.797060235178208, -6.194422424344808 ], [ 106.797087691030683, -6.194421962467515 ], [ 106.797441530583086, -6.194324710739355 ], [ 106.797930493981994, -6.194241291411305 ], [ 106.798425316731695, -6.194206730795927 ], [ 106.798921128905661, -6.194221369030491 ], [ 106.799413050839661, -6.19428506204901 ], [ 106.79989624115629, -6.19439718300011 ], [ 106.800365944412619, -6.194556628416343 ], [ 106.800817537902105, -6.194761829074257 ], [ 106.801246577150209, -6.195010765438307 ], [ 106.801648839655797, -6.195300987536647 ], [ 106.802020366447977, -6.195629639073154 ], [ 106.8023575010494, -6.195993485538419 ], [ 106.802656925462358, -6.196388946043003 ], [ 106.802915692823774, -6.196812128559691 ], [ 106.803131256407468, -6.197258868227892 ], [ 106.803288865225625, -6.19763170229334 ], [ 106.803326480924127, -6.197714475327569 ], [ 106.8033996061626, -6.197870494854911 ], [ 106.803474488874272, -6.198023655212576 ], [ 106.803609957903603, -6.19830073531779 ], [ 106.803616550432949, -6.198314270882841 ], [ 106.803869681679586, -6.198835985478352 ], [ 106.803995872858195, -6.199095437080465 ], [ 106.80399645206171, -6.199096627954558 ], [ 106.804182741675206, -6.199530653939032 ], [ 106.804327246406203, -6.199980321325013 ], [ 106.804428676796348, -6.200441617597758 ], [ 106.804486127752355, -6.200910426474539 ], [ 106.804499086622386, -6.201382564635443 ], [ 106.80446743777064, -6.201853819052374 ], [ 106.804391463609136, -6.202319984583145 ], [ 106.804271842077739, -6.202776901495198 ], [ 106.804208922357375, -6.202977948637197 ], [ 106.804196487952069, -6.203012193286431 ], [ 106.804117029643464, -6.203287637572012 ], [ 106.803948119263225, -6.203718680882784 ], [ 106.803740064832922, -6.204132253616829 ], [ 106.80349465003691, -6.204524810148061 ], [ 106.803213978856007, -6.204892985025706 ], [ 106.802900457529759, -6.205233621826856 ], [ 106.80258285568442, -6.205548135758059 ], [ 106.802220717045614, -6.205873406795716 ], [ 106.801828665611382, -6.206161922505125 ], [ 106.801679692569166, -6.20625062132575 ], [ 106.801658785329394, -6.206265174792479 ], [ 106.801626144927965, -6.206286977634424 ], [ 106.801570860009178, -6.206373094505709 ], [ 106.801556385597223, -6.206395427912774 ], [ 106.801356378868576, -6.207018244635719 ], [ 106.801353070624103, -6.20702869244312 ], [ 106.801184009771575, -6.207484356862836 ], [ 106.801168236070538, -6.207516801997092 ], [ 106.801143488861896, -6.207639515179177 ], [ 106.801087435637598, -6.207861976630092 ], [ 106.800986114671346, -6.208430147695153 ], [ 106.800880823558572, -6.208892501111781 ], [ 106.800732206534789, -6.209342800879199 ], [ 106.800541600302523, -6.209776996877011 ], [ 106.800310719226829, -6.21019118382657 ], [ 106.800041639915847, -6.210581636416132 ], [ 106.79973678254315, -6.210944842807335 ], [ 106.799398889080109, -6.211277536221647 ], [ 106.799030998633782, -6.211576724322676 ], [ 106.798636420112388, -6.211839716130058 ], [ 106.798218702464055, -6.21206414622289 ], [ 106.797781602756615, -6.212247996014972 ], [ 106.797329052385464, -6.212389611910529 ], [ 106.79686512171358, -6.212487720177109 ], [ 106.796393983461442, -6.212541438401884 ], [ 106.794264967213451, -6.212682352092774 ], [ 106.793783793275352, -6.212690988694271 ], [ 106.793304017851113, -6.212653325822669 ], [ 106.792830085636894, -6.212569712391252 ], [ 106.792366387196623, -6.212440923004714 ], [ 106.791917218287367, -6.212268150783128 ], [ 106.791486740062894, -6.212052996308738 ], [ 106.791078940524258, -6.211797452797979 ], [ 106.790697597574521, -6.211503887636087 ], [ 106.790346244019744, -6.211175020445355 ], [ 106.790028134840725, -6.21081389789024 ], [ 106.789746217038399, -6.2104238654527 ], [ 106.789503102332588, -6.210008536439252 ], [ 106.789301042966599, -6.209571758506881 ], [ 106.789141910842218, -6.209117578017883 ], [ 106.789027180178238, -6.208650202553896 ], [ 106.788957913853068, -6.208173961936359 ], [ 106.788934753558109, -6.207693268114544 ], [ 106.788934753558109, -6.207316386529262 ], [ 106.788958829924738, -6.206826300827615 ], [ 106.789030827156083, -6.206340934919182 ], [ 106.789124093967175, -6.205968592937726 ] ] ] } },
{ "type": "Feature", "properties": { "ADMINISTRASI_1": "Jakarta Barat", "KECAMATAN_1": "Palmerah", "Kepadatan Penduduk": 20552432, "Kelas Kepadatan Penduduk": "TINGGI", "ID_PROV": "31", "PROVINSI": "DKI JAKARTA", "ID_KABKOT": "31.73", "KABKOT": "KOTA ADM. JAKARTA BARAT", "ID_KEC": "31.73.07", "KECAMATAN_2": "PAL MERAH", "ID_DESA": "31.73.07.1006", "DESA": "KOTA BAMBU SELATAN", "KELAS_RISIKO": "SEDANG", "Administrasi": "Jakarta Barat", "Kecamatan": "Palmerah", "Tingkat Polusi": "Rendah", "ADMINISTRASI_2": "Jakarta Barat", "KECAMATAN": "Palmerah", "LUAS RTH": 3495289, "SKOR_TOTAL": 8, "KESESUAIAN": "SEDANG" }, "geometry": { "type": "Polygon", "coordinates": [ [ [ 106.801981936302141, -6.194338483691526 ], [ 106.801401747957385, -6.194383062017622 ], [ 106.801280802957336, -6.194385295017597 ], [ 106.800920758209202, -6.194378973072562 ], [ 106.800855240255459, -6.194375459600215 ], [ 106.800352454537176, -6.194322904895992 ], [ 106.799857545360751, -6.194219849655836 ], [ 106.799375571796162, -6.194067347332981 ], [ 106.79891146068276, -6.193866956839575 ], [ 106.798469956265976, -6.193620726611127 ], [ 106.798055571700672, -6.193331173666962 ], [ 106.797672542916615, -6.193001257880694 ], [ 106.797324785317954, -6.192634351723746 ], [ 106.797015853759007, -6.192234205791213 ], [ 106.796748906205821, -6.191804910462458 ], [ 106.796526671454785, -6.191350854088353 ], [ 106.796351421238157, -6.190876678132601 ], [ 106.796224947002059, -6.190387229725675 ], [ 106.796148541593837, -6.189887512116388 ], [ 106.796122986046299, -6.189382633527589 ], [ 106.796122986046299, -6.189345805308784 ], [ 106.796147062412928, -6.188855719607137 ], [ 106.796219059644272, -6.188370353698704 ], [ 106.796338284367636, -6.187894381922512 ], [ 106.796503588383743, -6.187432388146959 ], [ 106.796713379724551, -6.186988821624654 ], [ 106.796965637984783, -6.186567954143686 ], [ 106.797257933779477, -6.186173838887966 ], [ 106.797587452140363, -6.185810271402851 ], [ 106.797951019625472, -6.185480753041971 ], [ 106.798345134881203, -6.185188457247271 ], [ 106.798766002362171, -6.184936198987042 ], [ 106.799209568884464, -6.184726407646228 ], [ 106.799671562660023, -6.184561103630124 ], [ 106.800147534436221, -6.184441878906768 ], [ 106.800632900344652, -6.184369881675424 ], [ 106.801122986046295, -6.184345805308785 ], [ 106.80153248559175, -6.184345805308785 ], [ 106.802018913801689, -6.184369522801071 ], [ 106.802500727268708, -6.184440450270156 ], [ 106.80297335502992, -6.184557914827358 ], [ 106.803432313267223, -6.184720802086784 ], [ 106.803659437627118, -6.184827306070112 ], [ 106.803691820871933, -6.184736800963887 ], [ 106.803901612212741, -6.184293234441582 ], [ 106.804153870472973, -6.183872366960614 ], [ 106.804446166267667, -6.183478251704894 ], [ 106.804775684628552, -6.183114684219779 ], [ 106.805139252113662, -6.182785165858899 ], [ 106.805533367369392, -6.182492870064199 ], [ 106.805954234850361, -6.18224061180397 ], [ 106.806397801372654, -6.182030820463156 ], [ 106.806859795148213, -6.181865516447052 ], [ 106.80733576692441, -6.181746291723696 ], [ 106.807821132832842, -6.181674294492352 ], [ 106.808311218534485, -6.181650218125712 ], [ 106.809209747595503, -6.181650218125712 ], [ 106.809699833297145, -6.181674294492352 ], [ 106.810185199205577, -6.181746291723696 ], [ 106.810661170981774, -6.181865516447052 ], [ 106.811123164757333, -6.182030820463156 ], [ 106.811566731279626, -6.18224061180397 ], [ 106.811987598760595, -6.182492870064199 ], [ 106.812381714016325, -6.182785165858899 ], [ 106.812745281501435, -6.183114684219779 ], [ 106.813074799862321, -6.183478251704894 ], [ 106.813367095657014, -6.183872366960614 ], [ 106.813619353917247, -6.184293234441582 ], [ 106.813829145258055, -6.184736800963887 ], [ 106.813994449274162, -6.18519879473944 ], [ 106.814034160830332, -6.185357332158465 ], [ 106.814265624718047, -6.185669425082661 ], [ 106.814517882978279, -6.186090292563629 ], [ 106.814727674319087, -6.186533859085935 ], [ 106.814892978335195, -6.186995852861488 ], [ 106.815012203058558, -6.187471824637679 ], [ 106.815084200289903, -6.187957190546112 ], [ 106.815108276656531, -6.18844727624776 ], [ 106.815108276656531, -6.188683554435428 ], [ 106.815084952380843, -6.189165943008145 ], [ 106.815015197162495, -6.189643831035238 ], [ 106.814899661797483, -6.190112759959868 ], [ 106.814739424197285, -6.19056835481103 ], [ 106.814535979332263, -6.191006365020757 ], [ 106.814291225284094, -6.191422704080695 ], [ 106.814007445537129, -6.191813487668037 ], [ 106.813687287674185, -6.192175069885132 ], [ 106.813333738675368, -6.192504077274655 ], [ 106.812950097050404, -6.19279744029298 ], [ 106.812539942064518, -6.193052421948142 ], [ 106.812107100344875, -6.193266643335172 ], [ 106.811655610179315, -6.193438105830594 ], [ 106.811189683840297, -6.193565209739002 ], [ 106.810713668285558, -6.193646769217755 ], [ 106.810232004602327, -6.193682023340546 ], [ 106.809688087826487, -6.193695487004446 ], [ 106.80960895817779, -6.193695444294249 ], [ 106.809284392530529, -6.193715209162078 ], [ 106.808976501227775, -6.193754556828369 ], [ 106.808804526768142, -6.193773516878185 ], [ 106.808723722528711, -6.193781012925943 ], [ 106.808563076180022, -6.193793308776978 ], [ 106.808389142210231, -6.193803805991964 ], [ 106.808347082973924, -6.193806434877997 ], [ 106.807858525557123, -6.193850172404054 ], [ 106.807370859511607, -6.193869914075059 ], [ 106.806883592035177, -6.193842015832201 ], [ 106.806401365966465, -6.19376674349876 ], [ 106.805928776107933, -6.193644814293331 ], [ 106.805470325445185, -6.19347738999594 ], [ 106.805030382241128, -6.193266065878236 ], [ 106.804801366252974, -6.193127084255432 ], [ 106.804774933940877, -6.193151922582761 ], [ 106.804389272829653, -6.193449311940602 ], [ 106.803976509386715, -6.193707771343688 ], [ 106.803540559497577, -6.193924848788459 ], [ 106.803085559017489, -6.194098484861866 ], [ 106.802615824534598, -6.194227032279016 ], [ 106.802524931942898, -6.194247204970186 ], [ 106.802114080302104, -6.19432054769152 ], [ 106.801981936302141, -6.194338483691526 ] ] ] } },
{ "type": "Feature", "properties": { "ADMINISTRASI_1": "Jakarta Barat", "KECAMATAN_1": "Palmerah", "Kepadatan Penduduk": 20552432, "Kelas Kepadatan Penduduk": "TINGGI", "ID_PROV": "31", "PROVINSI": "DKI JAKARTA", "ID_KABKOT": "31.73", "KABKOT": "KOTA ADM. JAKARTA BARAT", "ID_KEC": "31.73.07", "KECAMATAN_2": "PAL MERAH", "ID_DESA": "31.73.07.1005", "DESA": "KEMANGGISAN", "KELAS_RISIKO": "SEDANG", "Administrasi": "Jakarta Barat", "Kecamatan": "Palmerah", "Tingkat Polusi": "Rendah", "ADMINISTRASI_2": "Jakarta Barat", "KECAMATAN": "Palmerah", "LUAS RTH": 3495289, "SKOR_TOTAL": 8, "KESESUAIAN": "SEDANG" }, "geometry": { "type": "Polygon", "coordinates": [ [ [ 106.791805927506331, -6.19613968089078 ], [ 106.791845639062515, -6.195981143471727 ], [ 106.792010943078623, -6.195519149696174 ], [ 106.792220734419431, -6.195075583173868 ], [ 106.792472992679663, -6.1946547156929 ], [ 106.792765288474357, -6.194260600437181 ], [ 106.792945197596424, -6.194062101309896 ], [ 106.793139180238185, -6.19365984134222 ], [ 106.793399680573529, -6.193234175523428 ], [ 106.793701316191587, -6.192836598149924 ], [ 106.794041082176449, -6.19247106991635 ], [ 106.794415593754707, -6.192141232241493 ], [ 106.794821120014845, -6.191850370992202 ], [ 106.795253621074849, -6.191601383749347 ], [ 106.795708788327758, -6.19139675094191 ], [ 106.796182087364386, -6.191238511136764 ], [ 106.79666880314538, -6.191128240730333 ], [ 106.797164086972813, -6.191067038244404 ], [ 106.797663004793264, -6.191055513382584 ], [ 106.798160586351202, -6.191093780956384 ], [ 106.79865187470304, -6.191181459741454 ], [ 106.79913197559857, -6.191317676275378 ], [ 106.799596106237843, -6.19150107355916 ], [ 106.800039642917739, -6.191729824575751 ], [ 106.800458167093666, -6.192001650490928 ], [ 106.800847509397443, -6.192313843355197 ], [ 106.801203791172753, -6.192663293080593 ], [ 106.801523463114734, -6.193046518423596 ], [ 106.801803340628283, -6.193459701665532 ], [ 106.802040635553297, -6.193898726644963 ], [ 106.802232983940527, -6.194359219763188 ], [ 106.802378469601379, -6.194836593554353 ], [ 106.802450999090667, -6.195125586352402 ], [ 106.80262420958266, -6.195798367555442 ], [ 106.802773711614947, -6.19628407896939 ], [ 106.802782823967206, -6.196313680646272 ], [ 106.802801666352408, -6.196374897661403 ], [ 106.802922033215324, -6.196705649907788 ], [ 106.802941787339677, -6.196759934036161 ], [ 106.803039623450076, -6.197028744362825 ], [ 106.803170935587303, -6.197359442314622 ], [ 106.803336961137305, -6.197850326598563 ], [ 106.803451288072168, -6.198355758310504 ], [ 106.803451564072205, -6.198357360310502 ], [ 106.803512282603052, -6.198861889182203 ], [ 106.803521476565365, -6.19936997538889 ], [ 106.803479050990603, -6.19987637068209 ], [ 106.803385444111399, -6.200375844279526 ], [ 106.803241622834861, -6.200863236896197 ], [ 106.803049072754945, -6.201333514036927 ], [ 106.802809782807088, -6.201781817999906 ], [ 106.802526224723621, -6.202203518054051 ], [ 106.802201327502132, -6.202594258271893 ], [ 106.801838447150573, -6.202950002523882 ], [ 106.801441332021554, -6.20326707616937 ], [ 106.801014084093879, -6.203542204013609 ], [ 106.800561116601514, -6.203772544138694 ], [ 106.800087108447187, -6.203955717258995 ], [ 106.799650152447143, -6.204099511258991 ], [ 106.799240043484858, -6.204215351485738 ], [ 106.799094014484851, -6.204249953485708 ], [ 106.798762859711687, -6.204316693813412 ], [ 106.798682158711685, -6.204330138813449 ], [ 106.798374675935477, -6.204371607045342 ], [ 106.798263232935497, -6.204383129045308 ], [ 106.798253605973741, -6.204383746834734 ], [ 106.797975876953117, -6.204463094479011 ], [ 106.79789140695307, -6.204480641478981 ], [ 106.797418289133532, -6.204555488435598 ], [ 106.797337623133558, -6.204564314435597 ], [ 106.797195412598185, -6.204577821471299 ], [ 106.796636996598195, -6.204622820471308 ], [ 106.796480835233183, -6.204632947636879 ], [ 106.795977264913262, -6.204657698070424 ], [ 106.795501002506839, -6.204658396305029 ], [ 106.795026834244666, -6.20461377762672 ], [ 106.794559062281323, -6.204524246863206 ], [ 106.794101930737426, -6.204390616332002 ], [ 106.793659587192451, -6.204214098470223 ], [ 106.79323604505359, -6.203996294834087 ], [ 106.79283514714183, -6.203739181567895 ], [ 106.792460530825863, -6.203445091474373 ], [ 106.792115595019979, -6.203116692849024 ], [ 106.791803469345652, -6.202756965270537 ], [ 106.791526985736169, -6.202369172566906 ], [ 106.791288652742438, -6.20195683320254 ], [ 106.791090632772764, -6.201523688355043 ], [ 106.790934722473153, -6.201073667971308 ], [ 106.790822336426274, -6.200610855110886 ], [ 106.790754494316886, -6.200139448900175 ], [ 106.79073181168016, -6.199663726433505 ], [ 106.79073181168016, -6.199229624980046 ], [ 106.790755888046789, -6.198739539278399 ], [ 106.790827885278134, -6.198254173369966 ], [ 106.790947110001497, -6.197778201593774 ], [ 106.791112414017604, -6.197316207818221 ], [ 106.791322205358412, -6.196872641295916 ], [ 106.791574463618645, -6.196451773814948 ], [ 106.791805927506331, -6.19613968089078 ] ] ] } },
{ "type": "Feature", "properties": { "ADMINISTRASI_1": "Jakarta Barat", "KECAMATAN_1": "Palmerah", "Kepadatan Penduduk": 20552432, "Kelas Kepadatan Penduduk": "TINGGI", "ID_PROV": "31", "PROVINSI": "DKI JAKARTA", "ID_KABKOT": "31.73", "KABKOT": "KOTA ADM. JAKARTA BARAT", "ID_KEC": "31.73.07", "KECAMATAN_2": "PAL MERAH", "ID_DESA": "31.73.07.1001", "DESA": "PALMERAH", "KELAS_RISIKO": "SEDANG", "Administrasi": "Jakarta Barat", "Kecamatan": "Palmerah", "Tingkat Polusi": "Rendah", "ADMINISTRASI_2": "Jakarta Barat", "KECAMATAN": "Palmerah", "LUAS RTH": 3495289, "SKOR_TOTAL": 8, "KESESUAIAN": "SEDANG" }, "geometry": { "type": "Polygon", "coordinates": [ [ [ 106.78364785356483, -6.210209444635792 ], [ 106.78347527144858, -6.209960128748471 ], [ 106.783239793766725, -6.209537926322177 ], [ 106.783046190070351, -6.209094956530699 ], [ 106.782896270202613, -6.208635360337642 ], [ 106.78279143564221, -6.208163434133286 ], [ 106.782732666401984, -6.207683589571141 ], [ 106.782720511867709, -6.207200312326993 ], [ 106.782755085662203, -6.206718120165973 ], [ 106.782836064583236, -6.206241520709654 ], [ 106.78296269162486, -6.205774969297971 ], [ 106.783133783054055, -6.205322827339876 ], [ 106.783347739476483, -6.204889321542086 ], [ 106.783602560787884, -6.204478504397037 ], [ 106.783895864871496, -6.204094216299442 ], [ 106.784224909866438, -6.203740049645568 ], [ 106.784479386441618, -6.203514400906307 ], [ 106.784678526925134, -6.20324589104742 ], [ 106.78500804528602, -6.202882323562305 ], [ 106.785371612771129, -6.202552805201424 ], [ 106.78576572802686, -6.202260509406725 ], [ 106.786186595507829, -6.202008251146496 ], [ 106.786630162030121, -6.201798459805682 ], [ 106.787092155805681, -6.201633155789577 ], [ 106.787568127581878, -6.201513931066222 ], [ 106.78805349349031, -6.201441933834877 ], [ 106.788543579191952, -6.201417857468238 ], [ 106.790340637314003, -6.201417857468238 ], [ 106.790830723015645, -6.201441933834877 ], [ 106.791316088924077, -6.201513931066222 ], [ 106.791792060700274, -6.201633155789577 ], [ 106.792254054475833, -6.201798459805682 ], [ 106.792697620998126, -6.202008251146496 ], [ 106.793118488479095, -6.202260509406725 ], [ 106.793512603734825, -6.202552805201424 ], [ 106.793876171219935, -6.202882323562305 ], [ 106.794205689580821, -6.20324589104742 ], [ 106.794497985375514, -6.203640006303139 ], [ 106.794750243635747, -6.204060873784107 ], [ 106.794960034976555, -6.204504440306413 ], [ 106.795125338992662, -6.204966434081966 ], [ 106.795244563716025, -6.205442405858157 ], [ 106.79531656094737, -6.20592777176659 ], [ 106.795340637313998, -6.206417857468238 ], [ 106.795340637313998, -6.207535554005601 ], [ 106.795316919670753, -6.208021983759953 ], [ 106.795245991751642, -6.208503798727353 ], [ 106.795128526453894, -6.208976427901597 ], [ 106.79496563817753, -6.209435387422625 ], [ 106.794758872252942, -6.209876323115164 ], [ 106.794510190280334, -6.210295051797034 ], [ 106.794221951519816, -6.210687600965233 ], [ 106.793896890509032, -6.211050246483313 ], [ 106.793538091120396, -6.21137954791246 ], [ 106.793242442794721, -6.211625469702967 ], [ 106.793242463995298, -6.211625492716685 ], [ 106.793242095995282, -6.211625831723667 ], [ 106.793171427207184, -6.211705917905078 ], [ 106.792806023914295, -6.212044994988942 ], [ 106.792408673306596, -6.212346002181244 ], [ 106.791983324935245, -6.212605947556759 ], [ 106.79153420664116, -6.212822247332952 ], [ 106.791065782531476, -6.212992751552036 ], [ 106.790582708607602, -6.213115765450938 ], [ 106.790089786485879, -6.213190066306759 ], [ 106.78959191567094, -6.213214915590285 ], [ 106.78855365547237, -6.213214915590285 ], [ 106.788093738185353, -6.213193718266543 ], [ 106.787637720504591, -6.213130306025928 ], [ 106.787189468971846, -6.213025216536358 ], [ 106.786752784280253, -6.212879340844207 ], [ 106.78633136904854, -6.212693915819186 ], [ 106.786242066831207, -6.21264960791674 ], [ 106.785828923562008, -6.212419667623061 ], [ 106.785439347348699, -6.212151730552893 ], [ 106.785076821936059, -6.211848192705615 ], [ 106.784744589169875, -6.211511768436851 ], [ 106.784083729291652, -6.210776023279702 ], [ 106.783720669657043, -6.210321131830882 ], [ 106.78364376028027, -6.210212338300167 ], [ 106.78364785356483, -6.210209444635792 ] ] ] } }
]
}
